[{"OBJECT_NAME":"ONEWEB-0310","OBJECT_ID":"2021-075X","EPOCH":"2026-03-09T19:44:10.768704","MEAN_MOTION":13.12444641,"ECCENTRICITY":0.00018232,"INCLINATION":87.8998,"RA_OF_ASC_NODE":10.4078,"ARG_OF_PERICENTER":80.2008,"MEAN_ANOMALY":279.9326,"EPHEMERIS_TYPE":0,"CLASSIFICATION_TYPE":"U","NORAD_CAT_ID":49096,"ELEMENT_SET_NO":999,"REV_AT_EPOCH":22215,"BSTAR":0.0014705659,"MEAN_MOTION_DOT":5.42e-6,"MEAN_MOTION_DDOT":0},{"OBJECT_NAME":"COSMOS 457","OBJECT_ID":"1971-099A","EPOCH":"2026-03-09T17:22:41.928096","MEAN_MOTION":13.16113343,"ECCENTRICITY":0.00223107,"INCLINATION":74.0365,"RA_OF_ASC_NODE":159.0991,"ARG_OF_PERICENTER":81.8482,"MEAN_ANOMALY":32.906,"EPHEMERIS_TYPE":0,"CLASSIFICATION_TYPE":"U","NORAD_CAT_ID":5614,"ELEMENT_SET_NO":999,"REV_AT_EPOCH":60847,"BSTAR":0.00099329993,"MEAN_MOTION_DOT":3.59e-6,"MEAN_MOTION_DDOT":0}]
